      2.10          N: GNSS NAV DATA                        RINEX VERSION / TYPE
fic2rin                                 05/09/2019 00:19:23 PGM / RUN BY / DATE
                                                            END OF HEADER
29 19  5  8  6  0  0.0 2.069226466119e-04-9.208633855451e-12 0.000000000000e+00
    1.810000000000e+02-9.181250000000e+01 3.909805716245e-09 2.246246816305e+00
   -4.753470420837e-06 1.015172922052e-03 3.604218363762e-06 5.153762525558e+03
    2.808000000000e+05 9.313225746155e-09 2.691368162973e+00 1.862645149231e-09
    9.856926618044e-01 3.229687500000e+02 1.643481563707e+00-7.978189466472e-09
   -1.257195224370e-10 1.000000000000e+00 2.052000000000e+03 0.000000000000e+00
    2.400000000000e+00 0.000000000000e+00-9.778887033463e-09 1.810000000000e+02
    2.736000000000e+05 4.000000000000e+00
20 19  5  8  6  0  0.0 5.245609208941e-04 2.273736754432e-13 0.000000000000e+00
    1.050000000000e+02 1.831250000000e+01 5.515944046924e-09-9.128121004594e-01
    8.605420589447e-07 4.375314572826e-03 7.957220077515e-06 5.153680644989e+03
    2.808000000000e+05-5.587935447693e-08-1.682775316564e+00-2.421438694000e-08
    9.301624273758e-01 2.115937500000e+02 2.350600682056e+00-8.469281350992e-09
    5.889531036893e-10 1.000000000000e+00 2.052000000000e+03 0.000000000000e+00
    2.400000000000e+00 0.000000000000e+00-8.847564458847e-09 1.050000000000e+02
    2.736000000000e+05 4.000000000000e+00
28 19  5  8  6  0  0.0 7.677981629968e-04 1.136868377216e-13 0.000000000000e+00
    9.800000000000e+01 1.070312500000e+02 3.853374794242e-09 2.445997101872e+00
    5.397945642471e-06 1.906352699734e-02 3.155320882797e-06 5.153706060410e+03
    2.808000000000e+05 1.862645149231e-07 1.669394454008e+00-3.911554813385e-08
    9.820484026692e-01 3.242187500000e+02-1.467749930910e+00-7.719250109180e-09
    1.496490906282e-10 1.000000000000e+00 2.052000000000e+03 0.000000000000e+00
    2.400000000000e+00 0.000000000000e+00-1.117587089539e-08 9.800000000000e+01
    2.736000000000e+05 4.000000000000e+00
 4 19  5  8  6  0  0.0 1.580724492669e-04 3.865352482535e-12 0.000000000000e+00
    6.700000000000e+01-1.128125000000e+01 4.856273711864e-09-1.319446588681e+00
   -7.003545761108e-07 4.197361413389e-04 6.992369890213e-06 5.153755119324e+03
    2.808000000000e+05-3.352761268616e-08-4.840278943675e-01 0.000000000000e+00
    9.599810821968e-01 2.418125000000e+02-1.577371864144e+00-8.053192590653e-09
   -4.753769442150e-10 1.000000000000e+00 2.052000000000e+03 0.000000000000e+00
    2.400000000000e+00 6.300000000000e+01-8.847564458847e-09 5.790000000000e+02
    2.736300000000e+05 4.000000000000e+00
21 19  5  8  5 59 44.0-1.970846205950e-04 7.503331289627e-12 0.000000000000e+00
    8.000000000000e+00-7.684375000000e+01 4.396254550220e-09-2.379455589853e+00
   -3.878027200699e-06 2.463346335571e-02 1.022219657898e-05 5.153748348236e+03
    2.807840000000e+05 2.663582563400e-07-2.667695000250e+00 2.067536115646e-07
    9.484770616139e-01 1.638125000000e+02-1.445285941664e+00-7.521384724435e-09
    3.543004723225e-10 1.000000000000e+00 2.052000000000e+03 0.000000000000e+00
    2.400000000000e+00 0.000000000000e+00-1.024454832077e-08 8.000000000000e+00
    2.776200000000e+05 4.000000000000e+00
16 19  5  8  5 59 44.0-3.841565921903e-05-2.842170943040e-12 0.000000000000e+00
    8.000000000000e+00 9.793750000000e+01 4.014452932364e-09 2.491928707999e+00
    4.908069968224e-06 1.080469868612e-02 2.836808562279e-06 5.153572252274e+03
    2.807840000000e+05-6.146728992462e-08 1.665419108716e+00-1.676380634308e-07
    9.831027291919e-01 3.391250000000e+02 5.751479369230e-01-8.042120700893e-09
    2.221521106700e-10 1.000000000000e+00 2.052000000000e+03 0.000000000000e+00
    2.400000000000e+00 0.000000000000e+00-1.071020960808e-08 8.000000000000e+00
    2.779500000000e+05 4.000000000000e+00
 6 19  5  8  5 59 44.0 2.112137153745e-04-9.890754881781e-12 0.000000000000e+00
    1.000000000000e+00-9.000000000000e+01 4.012309985959e-09-3.693799290596e-01
   -4.947185516357e-06 1.580775831826e-03 1.001916825771e-05 5.153579982758e+03
    2.807840000000e+05-2.421438694000e-08-2.612251657304e+00-2.235174179077e-08
    9.752619256995e-01 1.930312500000e+02-1.085575116984e+00-7.703178011141e-09
    2.710827202548e-10 1.000000000000e+00 2.052000000000e+03 0.000000000000e+00
    2.400000000000e+00 0.000000000000e+00 4.190951585770e-09 1.000000000000e+00
    2.790900000000e+05 4.000000000000e+00
 6 19  5  8  7 59 44.0 2.111429348588e-04-9.890754881781e-12 0.000000000000e+00
    2.000000000000e+00-1.067500000000e+02 3.828016595114e-09 6.806559016733e-01
   -5.381181836128e-06 1.583235338330e-03 1.017563045025e-05 5.153584659576e+03
    2.879840000000e+05-9.313225746155e-09-2.612307110677e+00-4.097819328308e-08
    9.752638348076e-01 1.868750000000e+02-1.085378616365e+00-7.702106537939e-09
    2.635824078367e-10 1.000000000000e+00 2.052000000000e+03 0.000000000000e+00
    2.400000000000e+00 0.000000000000e+00 4.190951585770e-09 2.000000000000e+00
    2.808000000000e+05 4.000000000000e+00
16 19  5  8  7 59 44.0-3.843661397696e-05-2.842170943040e-12 0.000000000000e+00
    9.000000000000e+00 8.775000000000e+01 4.021596087048e-09-2.741043752435e+00
    4.529953002930e-06 1.080582849681e-02 2.788379788399e-06 5.153570243835e+03
    2.879840000000e+05 3.166496753693e-08 1.665361907157e+00-7.450580596924e-08
    9.831046777988e-01 3.392187500000e+02 5.751742504305e-01-7.938902115711e-09
    1.985797002130e-10 1.000000000000e+00 2.052000000000e+03 0.000000000000e+00
    2.400000000000e+00 0.000000000000e+00-1.071020960808e-08 9.000000000000e+00
    2.808000000000e+05 4.000000000000e+00
21 19  5  8  7 59 44.0-1.970306038857e-04 7.503331289627e-12 0.000000000000e+00
    9.000000000000e+00-7.268750000000e+01 4.520902599454e-09-1.329245746478e+00
   -3.408640623093e-06 2.463352354243e-02 1.031532883644e-05 5.153751623154e+03
    2.879840000000e+05-3.613531589508e-07-2.667750643802e+00 4.973262548447e-07
    9.484762555460e-01 1.793750000000e+02-1.445361646211e+00-8.202841681281e-09
    2.800116636097e-10 1.000000000000e+00 2.052000000000e+03 0.000000000000e+00
    2.400000000000e+00 0.000000000000e+00-1.024454832077e-08 9.000000000000e+00
    2.808000000000e+05 4.000000000000e+00
 1 19  5  8  8  0  0.0-1.137983053923e-05-8.753886504564e-12 0.000000000000e+00
    3.900000000000e+01-8.693750000000e+01 3.920163290536e-09 5.068610992678e-01
   -4.572793841362e-06 8.780458709225e-03 1.096166670322e-05 5.153661405563e+03
    2.880000000000e+05-4.842877388000e-08-2.604028512857e+00 1.434236764908e-07
    9.756072796963e-01 1.780625000000e+02 6.958864324974e-01-7.788538709614e-09
    1.989368579472e-10 1.000000000000e+00 2.052000000000e+03 0.000000000000e+00
    2.400000000000e+00 0.000000000000e+00 5.587935447693e-09 3.900000000000e+01
    2.808000000000e+05 4.000000000000e+00
 2 19  5  8  8  0  0.0-2.079531550407e-04-9.208633855451e-12 0.000000000000e+00
    8.400000000000e+01-1.002187500000e+02 4.479115144553e-09 7.882344528774e-01
   -5.317851901054e-06 1.888218673412e-02 1.003406941891e-05 5.153708347321e+03
    2.880000000000e+05-2.831220626831e-07-2.672344856107e+00-7.636845111847e-08
    9.547388542369e-01 1.855000000000e+02-1.743481890585e+00-8.272844597184e-09
    1.107188976008e-10 1.000000000000e+00 2.052000000000e+03 0.000000000000e+00
    3.400000000000e+00 0.000000000000e+00-2.048909664154e-08 8.400000000000e+01
    2.808000000000e+05 4.000000000000e+00
 5 19  5  8  8  0  0.0 9.811483323574e-07-1.136868377216e-13 0.000000000000e+00
    6.400000000000e+01 4.062500000000e+00 5.070925510116e-09-2.811847411908e+00
    4.656612873077e-08 5.618481547572e-03 7.906928658485e-06 5.153675643921e+03
    2.880000000000e+05 2.980232238770e-08-1.588281348968e+00-1.527369022369e-07
    9.492633873961e-01 2.231875000000e+02 7.043019184876e-01-8.056049852527e-09
    5.450227023832e-10 1.000000000000e+00 2.052000000000e+03 0.000000000000e+00
    2.400000000000e+00 0.000000000000e+00-1.117587089539e-08 6.400000000000e+01
    2.808000000000e+05 4.000000000000e+00
 3 19  5  8  8  0  0.0 1.881597563624e-04-3.410605131648e-13 0.000000000000e+00
    7.900000000000e+01 9.218750000000e+00 4.873060125371e-09-4.152680850569e-01
    5.718320608139e-07 2.138186478987e-03 7.743015885353e-06 5.153787111282e+03
    2.880000000000e+05 1.862645149231e-08-1.561690510244e+00 6.146728992462e-08
    9.623791487144e-01 2.344687500000e+02 5.794517219529e-01-8.062478691742e-09
    5.514515415988e-10 1.000000000000e+00 2.052000000000e+03 0.000000000000e+00
    2.400000000000e+00 0.000000000000e+00 1.862645149231e-09 7.900000000000e+01
    2.808000000000e+05 4.000000000000e+00
 8 19  5  8  8  0  0.0-1.427815295756e-04-1.364242052659e-12 0.000000000000e+00
    1.800000000000e+01-8.571875000000e+01 4.343395205559e-09 2.873145105775e+00
   -4.375353455544e-06 4.411120666191e-03 2.618879079819e-06 5.153736970901e+03
    2.880000000000e+05-8.009374141693e-08 2.612954624551e+00 2.421438694000e-08
    9.703746514049e-01 3.338125000000e+02-2.429115344690e-01-8.245343451651e-09
   -1.639353999960e-10 1.000000000000e+00 2.052000000000e+03 0.000000000000e+00
    2.400000000000e+00 0.000000000000e+00 5.122274160385e-09 1.800000000000e+01
    2.808000000000e+05 4.000000000000e+00
 7 19  5  8  8  0  0.0-2.000806853175e-05-7.503331289627e-12 0.000000000000e+00
    4.600000000000e+01 7.900000000000e+01 4.481615248692e-09-7.841476873558e-02
    4.069879651070e-06 1.263036066666e-02 1.035816967487e-05 5.153760046005e+03
    2.880000000000e+05 2.421438694000e-08 5.465243252518e-01 1.043081283569e-07
    9.560176509097e-01 1.748750000000e+02-2.470977719832e+00-8.113195089998e-09
   -4.625192657839e-10 1.000000000000e+00 2.052000000000e+03 0.000000000000e+00
    2.400000000000e+00 0.000000000000e+00-1.117587089539e-08 4.600000000000e+01
    2.808000000000e+05 4.000000000000e+00
